{
  "norad_id": 57113,
  "name": "STARLINK-6142",
  "history": [
    {
      "epoch": "2026-03-28T21:45:14.151456Z",
      "apogee_km": 560.5211814004315,
      "perigee_km": 557.6311383980174,
      "latitude_deg": -9.839300944362897e-06,
      "longitude_deg": 17.64118698009625,
      "height_km": 558.692148803072,
      "semi_major_axis_km": 6937.213159899225,
      "eccentricity": 0.0002083,
      "inclination_deg": 43.0035,
      "raan_deg": 170.2703,
      "arg_perigee_deg": 276.5218,
      "mean_anomaly_deg": 83.5387,
      "mean_motion_rev_day": 15.02537096
    }
  ]
}